NOAA 1 [-]              
1 04793U 70106A   19283.27542088 -.00000054  00000-0 -59678-4 0  9996
2 04793 101.6934 350.3101 0031932  66.9002 343.5488 12.53991489235087
NOAA 2 (ITOS-D) [-]     
1 06235U 72082A   19283.55367299 -.00000020  00000-0  16018-3 0  9996
2 06235 101.8104 249.3030 0003984 150.6049 318.2148 12.53119120149335
NOAA 3 [-]              
1 06920U 73086A   19283.53619587 -.00000028  00000-0  12779-3 0  9998
2 06920 102.0653 251.6070 0006411 306.6091 166.4384 12.40341745 79362
NOAA 4 [-]              
1 07529U 74089A   19283.54424525 -.00000025  00000-0  12581-3 0  9993
2 07529 101.7679 250.0843 0008682 184.8904 287.7219 12.53134914 53924
NOAA 5 [-]              
1 09057U 76077A   19283.51838721 -.00000032  00000-0  91837-4 0  9994
2 09057 101.9462 251.9875 0009747 152.7363 317.0774 12.37747879952591
TIROS N [P]             
1 11060U 78096A   19282.76191898  .00000010  00000-0  26023-4 0  9997
2 11060  98.7784 338.9669 0011681  85.3929 274.8580 14.18245267332697
NOAA 6 [P]              
1 11416U 79057A   19283.53031501  .00000032  00000-0  27847-4 0  9999
2 11416  98.6454 277.4762 0009240 273.1491  86.8635 14.33546469101180
NOAA 7 [-]              
1 12553U 81059A   19283.52792890  .00000013  00000-0  29359-4 0  9990
2 12553  99.0972 293.5093 0011873  24.7853  89.4016 14.17264324979078
NOAA 8 [-]              
1 13923U 83022A   19283.55702283  .00000008  00000-0  20655-4 0  9998
2 13923  98.5935 267.1172 0014713 197.9085 162.1580 14.28682918902609
NOAA 9 [P]              
1 15427U 84123A   19283.49363660  .00000004  00000-0  24713-4 0  9992
2 15427  98.9038 232.3074 0015890  71.9695  39.8423 14.16078181798009
NOAA 10 [-]             
1 16969U 86073A   19283.52610876  .00000007  00000-0  19978-4 0  9998
2 16969  98.4866 276.8401 0011378 315.9429 152.8649 14.28080128721082
NOAA 11 [-]             
1 19531U 88089A   19283.55074854 -.00000006  00000-0  17965-4 0  9992
2 19531  98.4389 311.7972 0012174 123.8744 236.3591 14.15245846602328
NOAA 12 [-]             
1 21263U 91032A   19283.52446272  .00000001  00000-0  18354-4 0  9990
2 21263  98.5151 295.7082 0013122 334.3406  25.7122 14.25899949477197
NOAA 13 [-]             
1 22739U 93050A   19283.55613915  .00000022  00000-0  33875-4 0  9992
2 22739  98.4677 300.1931 0008360 275.3619  84.6600 14.12738362348795
NOAA 14 [-]             
1 23455U 94089A   19283.27756599 -.00000033  00000-0  46223-5 0  9991
2 23455  98.5843 340.1877 0008377 258.5272 101.4961 14.14134971278277
NOAA 15 [B]             
1 25338U 98030A   19283.51213041  .00000034  00000-0  33126-4 0  9997
2 25338  98.7416 304.5438 0009355 272.4083  87.6025 14.25934124113461
NOAA 16 [-]             
1 26536U 00055A   19283.28721852 -.00000006  00000-0  19869-4 0  9994
2 26536  98.7660 352.9793 0011581  82.8827 277.3662 14.13236838982279
NOAA 17 [-]             
1 27453U 02032A   19283.50524090 -.00000008  00000-0  14746-4 0  9991
2 27453  98.5486 230.9305 0010581 247.8300 112.1757 14.25048765899152
NOAA 18 [B]             
1 28654U 05018A   19283.54431495  .00000066  00000-0  60835-4 0  9995
2 28654  99.0837 332.1518 0013836 214.2634 145.7646 14.12457538741587
NOAA 19 [+]             
1 33591U 09005A   19283.53231631 -.00000003  00000-0  23577-4 0  9994
2 33591  99.1883 277.4533 0014847  61.2760 298.9900 14.12379217549987
SUOMI NPP [+]           
1 37849U 11061A   19282.90968552 -.00000005  00000-0  18234-4 0  9994
2 37849  98.7075 219.5546 0000664  81.1364 319.0300 14.19553548411940
NOAA 20 [+]             
1 43013U 17073A   19283.42991937 -.00000003  00000-0  19150-4 0  9990
2 43013  98.7275 219.8909 0001036  65.1641 294.9643 14.19545050 98044
